{"type": "FeatureCollection", "features": [ {"type": "Feature", "properties": {"norad_id": 32461, "name": "FENGYUN 1C DEB", "group": "fengyun-1c-debris", "lat": -60.79252681609529, "lon": 5.884951638367537, "alt_km": 1084.8988978021853, "timestamp": "2025-12-11T18:59:46.360194+00:00", "meta": {"OBJECT_NAME": "FENGYUN 1C DEB", "OBJECT_ID": "1999-025DBZ", "EPOCH": "2025-12-06T13:47:26.922624", "MEAN_MOTION": 13.72810321, "ECCENTRICITY": 0.02320135, "INCLINATION": 98.3348, "RA_OF_ASC_NODE": 196.5399, "ARG_OF_PERICENTER": 133.6429, "MEAN_ANOMALY": 257.3138, "EPHEMERIS_TYPE": 0, "CLASSIFICATION_TYPE": "U", "NORAD_CAT_ID": 32461, "ELEMENT_SET_NO": 999, "REV_AT_EPOCH": 67210, "BSTAR": 0.001699488, "MEAN_MOTION_DOT": 1.863e-05, "MEAN_MOTION_DDOT": 0}, "tle": {"line1": "1 32461U 99025DBZ 25340.57461716  .00001863  00000+0  16995-2 0  9991", "line2": "2 32461  98.3348 196.5399 0232013 133.6429 257.3138 13.72810321672107"}}, "geometry": {"type": "Point", "coordinates": [5.884951638367537, -60.79252681609529]}}, {"type": "Feature", "properties": {"norad_id": 32464, "name": "FENGYUN 1C DEB", "group": "fengyun-1c-debris", "lat": -82.35435204570375, "lon": 84.40104506572945, "alt_km": 529.9690167396129, "timestamp": "2025-12-11T18:59:46.360204+00:00", "meta": {"OBJECT_NAME": "FENGYUN 1C DEB", "OBJECT_ID": "1999-025DCC", "EPOCH": "2025-12-10T19:15:27.430848", "MEAN_MOTION": 14.92830435, "ECCENTRICITY": 0.0112728, "INCLINATION": 97.3561, "RA_OF_ASC_NODE": 9.2469, "ARG_OF_PERICENTER": 242.7596, "MEAN_ANOMALY": 116.2104, "EPHEMERIS_TYPE": 0, "CLASSIFICATION_TYPE": "U", "NORAD_CAT_ID": 32464, "ELEMENT_SET_NO": 999, "REV_AT_EPOCH": 60763, "BSTAR": 0.0019977079, "MEAN_MOTION_DOT": 0.00023408, "MEAN_MOTION_DDOT": 0}, "tle": {"line1": "1 32464U 99025DCC 25344.80240082  .00023408  00000+0  19977-2 0  9997", "line2": "2 32464  97.3561   9.2469 0112728 242.7596 116.2104 14.92830435607634"}}, "geometry": {"type": "Point", "coordinates": [84.40104506572945, -82.35435204570375]}}, {"type": "Feature", "properties": {"norad_id": 33502, "name": "FENGYUN 1C DEB", "group": "fengyun-1c-debris", "lat": 27.781629146312834, "lon": -76.2763809199099, "alt_km": 852.2235105403106, "timestamp": "2025-12-11T18:59:46.360214+00:00", "meta": {"OBJECT_NAME": "FENGYUN 1C DEB", "OBJECT_ID": "1999-025DCF", "EPOCH": "2025-12-10T08:06:13.976064", "MEAN_MOTION": 14.21822997, "ECCENTRICITY": 0.007913, "INCLINATION": 99.0258, "RA_OF_ASC_NODE": 287.0403, "ARG_OF_PERICENTER": 159.8719, "MEAN_ANOMALY": 351.6044, "EPHEMERIS_TYPE": 0, "CLASSIFICATION_TYPE": "U", "NORAD_CAT_ID": 33502, "ELEMENT_SET_NO": 999, "REV_AT_EPOCH": 86921, "BSTAR": 0.0034319, "MEAN_MOTION_DOT": 7.764e-05, "MEAN_MOTION_DDOT": 0}, "tle": {"line1": "1 33502U 99025DCF 25344.33766176  .00007764  00000+0  34319-2 0  9990", "line2": "2 33502  99.0258 287.0403 0079130 159.8719 351.6044 14.21822997869216"}}, "geometry": {"type": "Point", "coordinates": [-76.2763809199099, 27.781629146312834]}}, {"type": "Feature", "properties": {"norad_id": 33599, "name": "FENGYUN 1C DEB", "group": "fengyun-1c-debris", "lat": -1.1591552527366897, "lon": 53.8076631933277, "alt_km": 473.45928877981623, "timestamp": "2025-12-11T18:59:46.360225+00:00", "meta": {"OBJECT_NAME": "FENGYUN 1C DEB", "OBJECT_ID": "1999-025DCG", "EPOCH": "2025-12-06T10:36:41.156064", "MEAN_MOTION": 15.14898296, "ECCENTRICITY": 0.0126212, "INCLINATION": 96.6136, "RA_OF_ASC_NODE": 49.0151, "ARG_OF_PERICENTER": 322.3863, "MEAN_ANOMALY": 36.8593, "EPHEMERIS_TYPE": 0, "CLASSIFICATION_TYPE": "U", "NORAD_CAT_ID": 33599, "ELEMENT_SET_NO": 999, "REV_AT_EPOCH": 65908, "BSTAR": 0.0016783, "MEAN_MOTION_DOT": 0.00038297, "MEAN_MOTION_DDOT": 0}, "tle": {"line1": "1 33599U 99025DCG 25340.44214301  .00038297  00000+0  16783-2 0  9992", "line2": "2 33599  96.6136  49.0151 0126212 322.3863  36.8593 15.14898296659088"}}, "geometry": {"type": "Point", "coordinates": [53.8076631933277, -1.1591552527366897]}}, {"type": "Feature", "properties": {"norad_id": 33601, "name": "FENGYUN 1C DEB", "group": "fengyun-1c-debris", "lat": 66.0592266493381, "lon": -18.71641445491537, "alt_km": 763.3860288223168, "timestamp": "2025-12-11T18:59:46.360235+00:00", "meta": {"OBJECT_NAME": "FENGYUN 1C DEB", "OBJECT_ID": "1999-025DCJ", "EPOCH": "2025-12-10T10:03:24.552288", "MEAN_MOTION": 14.07898476, "ECCENTRICITY": 0.01578633, "INCLINATION": 98.314, "RA_OF_ASC_NODE": 140.7898, "ARG_OF_PERICENTER": 149.1866, "MEAN_ANOMALY": 211.869, "EPHEMERIS_TYPE": 0, "CLASSIFICATION_TYPE": "U", "NORAD_CAT_ID": 33601, "ELEMENT_SET_NO": 999, "REV_AT_EPOCH": 90647, "BSTAR": 0.0019805202, "MEAN_MOTION_DOT": 3.731e-05, "MEAN_MOTION_DDOT": 0}, "tle": {"line1": "1 33601U 99025DCJ 25344.41903417  .00003731  00000+0  19805-2 0  9993", "line2": "2 33601  98.3140 140.7898 0157863 149.1866 211.8690 14.07898476906479"}}, "geometry": {"type": "Point", "coordinates": [-18.71641445491537, 66.0592266493381]}}, {"type": "Feature", "properties": {"norad_id": 33603, "name": "FENGYUN 1C DEB", "group": "fengyun-1c-debris", "lat": -77.01256212668584, "lon": 59.166247839788525, "alt_km": 790.9583340117424, "timestamp": "2025-12-11T18:59:46.360252+00:00", "meta": {"OBJECT_NAME": "FENGYUN 1C DEB", "OBJECT_ID": "1999-025DCL", "EPOCH": "2025-12-11T01:36:22.611168", "MEAN_MOTION": 14.79906637, "ECCENTRICITY": 0.0220614, "INCLINATION": 98.8043, "RA_OF_ASC_NODE": 280.5939, "ARG_OF_PERICENTER": 77.8281, "MEAN_ANOMALY": 284.7544, "EPHEMERIS_TYPE": 0, "CLASSIFICATION_TYPE": "U", "NORAD_CAT_ID": 33603, "ELEMENT_SET_NO": 999, "REV_AT_EPOCH": 98835, "BSTAR": 0.00029377754, "MEAN_MOTION_DOT": 3.286e-05, "MEAN_MOTION_DDOT": 0}, "tle": {"line1": "1 33603U 99025DCL 25345.06692837  .00003286  00000+0  29378-3 0  9990", "line2": "2 33603  98.8043 280.5939 0220614  77.8281 284.7544 14.79906637988352"}}, "geometry": {"type": "Point", "coordinates": [59.166247839788525, -77.01256212668584]}}, {"type": "Feature", "properties": {"norad_id": 33605, "name": "FENGYUN 1C DEB", "group": "fengyun-1c-debris", "lat": 47.69985325795851, "lon": -24.83871675768131, "alt_km": 826.5095392356707, "timestamp": "2025-12-11T18:59:46.360262+00:00", "meta": {"OBJECT_NAME": "FENGYUN 1C DEB", "OBJECT_ID": "1999-025DCN", "EPOCH": "2025-12-10T07:01:31.719072", "MEAN_MOTION": 14.0776111, "ECCENTRICITY": 0.0057186, "INCLINATION": 98.6977, "RA_OF_ASC_NODE": 343.4026, "ARG_OF_PERICENTER": 81.9564, "MEAN_ANOMALY": 295.3635, "EPHEMERIS_TYPE": 0, "CLASSIFICATION_TYPE": "U", "NORAD_CAT_ID": 33605, "ELEMENT_SET_NO": 999, "REV_AT_EPOCH": 59784, "BSTAR": 0.00085517, "MEAN_MOTION_DOT": 1.428e-05, "MEAN_MOTION_DDOT": 0}, "tle": {"line1": "1 33605U 99025DCN 25344.29272823  .00001428  00000+0  85517-3 0  9998", "line2": "2 33605  98.6977 343.4026 0057186  81.9564 295.3635 14.07761110597841"}}, "geometry": {"type": "Point", "coordinates": [-24.83871675768131, 47.69985325795851]}}, {"type": "Feature", "properties": {"norad_id": 33612, "name": "FENGYUN 1C DEB", "group": "fengyun-1c-debris", "lat": 23.84653071568958, "lon": -48.77798942752881, "alt_km": 873.461352526193, "timestamp": "2025-12-11T18:59:46.360272+00:00", "meta": {"OBJECT_NAME": "FENGYUN 1C DEB", "OBJECT_ID": "1999-025DCV", "EPOCH": "2025-12-10T08:40:31.741536", "MEAN_MOTION": 14.04055217, "ECCENTRICITY": 0.01118243, "INCLINATION": 98.5982, "RA_OF_ASC_NODE": 313.7031, "ARG_OF_PERICENTER": 114.8987, "MEAN_ANOMALY": 246.3853, "EPHEMERIS_TYPE": 0, "CLASSIFICATION_TYPE": "U", "NORAD_CAT_ID": 33612, "ELEMENT_SET_NO": 999, "REV_AT_EPOCH": 56640, "BSTAR": 0.0023046449, "MEAN_MOTION_DOT": 3.817e-05, "MEAN_MOTION_DDOT": 0}, "tle": {"line1": "1 33612U 99025DCV 25344.36147849  .00003817  00000+0  23046-2 0  9995", "line2": "2 33612  98.5982 313.7031 0111824 114.8987 246.3853 14.04055217566402"}}, "geometry": {"type": "Point", "coordinates": [-48.77798942752881, 23.84653071568958]}}, {"type": "Feature", "properties": {"norad_id": 33613, "name": "FENGYUN 1C DEB", "group": "fengyun-1c-debris", "lat": 67.5580343744834, "lon": 35.74571284157716, "alt_km": 754.0680258455241, "timestamp": "2025-12-11T18:59:46.360282+00:00", "meta": {"OBJECT_NAME": "FENGYUN 1C DEB", "OBJECT_ID": "1999-025DCW", "EPOCH": "2025-12-07T22:31:03.844416", "MEAN_MOTION": 14.3311819, "ECCENTRICITY": 0.00307976, "INCLINATION": 98.6971, "RA_OF_ASC_NODE": 53.6298, "ARG_OF_PERICENTER": 102.5021, "MEAN_ANOMALY": 257.9611, "EPHEMERIS_TYPE": 0, "CLASSIFICATION_TYPE": "U", "NORAD_CAT_ID": 33613, "ELEMENT_SET_NO": 999, "REV_AT_EPOCH": 64441, "BSTAR": 0.0026839332, "MEAN_MOTION_DOT": 7.364e-05, "MEAN_MOTION_DDOT": 0}, "tle": {"line1": "1 33613U 99025DCW 25341.93823894  .00007364  00000+0  26839-2 0  9991", "line2": "2 33613  98.6971  53.6298 0030797 102.5021 257.9611 14.33118190644419"}}, "geometry": {"type": "Point", "coordinates": [35.74571284157716, 67.5580343744834]}}, {"type": "Feature", "properties": {"norad_id": 33618, "name": "FENGYUN 1C DEB", "group": "fengyun-1c-debris", "lat": -39.86599492456588, "lon": -114.10429204202691, "alt_km": 664.7578700431586, "timestamp": "2025-12-11T18:59:46.360300+00:00", "meta": {"OBJECT_NAME": "FENGYUN 1C DEB", "OBJECT_ID": "1999-025DDB", "EPOCH": "2025-12-10T12:26:26.658240", "MEAN_MOTION": 14.62085252, "ECCENTRICITY": 0.01651698, "INCLINATION": 98.5301, "RA_OF_ASC_NODE": 71.7818, "ARG_OF_PERICENTER": 147.273, "MEAN_ANOMALY": 213.8834, "EPHEMERIS_TYPE": 0, "CLASSIFICATION_TYPE": "U", "NORAD_CAT_ID": 33618, "ELEMENT_SET_NO": 999, "REV_AT_EPOCH": 96751, "BSTAR": 0.0015131864, "MEAN_MOTION_DOT": 9.196e-05, "MEAN_MOTION_DDOT": 0}, "tle": {"line1": "1 33618U 99025DDB 25344.51836410  .00009196  00000+0  15132-2 0  9990", "line2": "2 33618  98.5301  71.7818 0165169 147.2730 213.8834 14.62085252967515"}}, "geometry": {"type": "Point", "coordinates": [-114.10429204202691, -39.86599492456588]}}]}